KUIPER-00176            
1 65788U 25217AC  25345.66668981 -.00934130  00000+0 -77266-1 0  9990
2 65788  51.8954  73.5817 0004915 337.8488  10.4964 15.01090849  4600
KUIPER-00101            
1 65947U 25228A   25345.66668981 -.00001862  00000+0 -14148-3 0  9998
2 65947  51.8973  30.4965 0003824  18.6647 140.2472 14.96040576  4592
KUIPER-00113            
1 65948U 25228B   25345.42532265  .00031645  00000+0  17954-2 0  9995
2 65948  51.8853  29.0738 0005811   1.9248 358.1749 15.12673024 10180
KUIPER-00117            
1 65949U 25228C   25345.66668981 -.00895663  00000+0 -69508-1 0  9998
2 65949  51.8913  28.9382 0009811  17.1084  79.8677 15.03765008  5862
KUIPER-00121            
1 65950U 25228D   25345.66668981 -.01471013  00000+0 -68693-1 0  9994
2 65950  51.8820  26.6953 0006728  22.4492 182.5682 15.22300056  5391
KUIPER-00122            
1 65951U 25228E   25345.66668981  .00000042  00000+0  30504-4 0  9995
2 65951  51.8957  32.4932 0006900  36.6085 221.7368 14.87815007  5734
KUIPER-00123            
1 65952U 25228F   25345.66668981  .00003322  00000+0  39931-3 0  9992
2 65952  51.8980  32.4928 0007460  28.6511  75.6157 14.86352649  3538
KUIPER-00124            
1 65953U 25228G   25345.66668981  .00015590  00000+0  85557-3 0  9998
2 65953  51.8890  27.0583 0005957  25.5954   9.5690 15.14293331  5323
